[{"OBJECT_NAME":"STARLINK-32399","OBJECT_ID":"2024-191G","EPOCH":"2026-03-09T05:47:24.329184","MEAN_MOTION":15.2756883,"ECCENTRICITY":2.825e-5,"INCLINATION":42.9975,"RA_OF_ASC_NODE":149.6043,"ARG_OF_PERICENTER":252.0749,"MEAN_ANOMALY":108.0072,"EPHEMERIS_TYPE":0,"CLASSIFICATION_TYPE":"U","NORAD_CAT_ID":61627,"ELEMENT_SET_NO":999,"REV_AT_EPOCH":7755,"BSTAR":8.372984e-6,"MEAN_MOTION_DOT":-3.1e-7,"MEAN_MOTION_DDOT":0},{"OBJECT_NAME":"OBJECT N","OBJECT_ID":"2019-093N","EPOCH":"2026-03-09T21:41:56.087232","MEAN_MOTION":15.29897693,"ECCENTRICITY":0.0006278,"INCLINATION":98.0505,"RA_OF_ASC_NODE":226.9456,"ARG_OF_PERICENTER":33.3806,"MEAN_ANOMALY":326.7828,"EPHEMERIS_TYPE":0,"CLASSIFICATION_TYPE":"U","NORAD_CAT_ID":44891,"ELEMENT_SET_NO":999,"REV_AT_EPOCH":33957,"BSTAR":0.0010567776,"MEAN_MOTION_DOT":0.00030617,"MEAN_MOTION_DDOT":0}]
